start=new Date('2022-01-07T00:00:00.000Z').valueOf();
sats=[{"LAUNCH_DATE":"2020-08-18","TLE_LINE1":"1 46166U 20057BB  22006.85452730  .00000273  00000-0  37204-4 0  9993","TLE_LINE2":"2 46166  53.0555 312.8863 0001729  59.2976 300.8184 15.06396701 76540","FILE":"3265870","APOAPSIS":"548.421","MEAN_MOTION_DDOT":"0.0000000000000","MEAN_ANOMALY":"300.8184","PERIAPSIS":"546.026","OBJECT_NAME":"STARLINK-1615","GP_ID":"193351748","MEAN_MOTION_DOT":"0.00000273","MEAN_ELEMENT_THEORY":"SGP4","INCLINATION":"53.0555","DECAY_DATE":null,"SITE":"AFETR","ELEMENT_SET_NO":"999","CENTER_NAME":"EARTH","EPHEMERIS_TYPE":"0","OBJECT_ID":"2020-057BB","BSTAR":"0.00003720400000","RA_OF_ASC_NODE":"312.8863","EPOCH":"2022-01-06T20:30:31.158720","NORAD_CAT_ID":"46166","ARG_OF_PERICENTER":"59.2976","REV_AT_EPOCH":"7654","RCS_SIZE":"LARGE","PERIOD":"95.592","TIME_SYSTEM":"UTC","CLASSIFICATION_TYPE":"U","OBJECT_TYPE":"PAYLOAD","ECCENTRICITY":"0.00017290","MEAN_MOTION":"15.06396701","COUNTRY_CODE":"US","SEMIMAJOR_AXIS":"6925.359","REF_FRAME":"TEME"},{"EPOCH":"2022-01-06T20:51:45.025632","RA_OF_ASC_NODE":"312.8347","BSTAR":"-0.00000655140000","ARG_OF_PERICENTER":"58.8039","NORAD_CAT_ID":"46167","REV_AT_EPOCH":"7654","RCS_SIZE":"LARGE","TIME_SYSTEM":"UTC","PERIOD":"95.592","CLASSIFICATION_TYPE":"U","ECCENTRICITY":"0.00017840","OBJECT_TYPE":"PAYLOAD","SEMIMAJOR_AXIS":"6925.360","REF_FRAME":"TEME","MEAN_MOTION":"15.06396285","COUNTRY_CODE":"US","INCLINATION":"53.0559","MEAN_ELEMENT_THEORY":"SGP4","DECAY_DATE":null,"SITE":"AFETR","ELEMENT_SET_NO":"999","CENTER_NAME":"EARTH","EPHEMERIS_TYPE":"0","OBJECT_ID":"2020-057BC","FILE":"3265870","APOAPSIS":"548.460","MEAN_MOTION_DDOT":"0.0000000000000","PERIAPSIS":"545.989","MEAN_ANOMALY":"301.3125","OBJECT_NAME":"STARLINK-1626","MEAN_MOTION_DOT":"-0.00000379","GP_ID":"193353000","LAUNCH_DATE":"2020-08-18","TLE_LINE1":"1 46167U 20057BC  22006.86927113 -.00000379  00000-0 -65514-5 0  9992","TLE_LINE2":"2 46167  53.0559 312.8347 0001784  58.8039 301.3125 15.06396285 76546"},{"ARG_OF_PERICENTER":"59.2954","NORAD_CAT_ID":"46168","EPOCH":"2022-01-06T21:44:47.166144","RA_OF_ASC_NODE":"262.6571","BSTAR":"0.00008531400000","RCS_SIZE":"LARGE","REV_AT_EPOCH":"7724","CLASSIFICATION_TYPE":"U","TIME_SYSTEM":"UTC","PERIOD":"95.592","SEMIMAJOR_AXIS":"6925.365","REF_FRAME":"TEME","COUNTRY_CODE":"US","MEAN_MOTION":"15.06394516","ECCENTRICITY":"0.00020750","OBJECT_TYPE":"PAYLOAD","DECAY_DATE":null,"INCLINATION":"53.0543","MEAN_ELEMENT_THEORY":"SGP4","EPHEMERIS_TYPE":"0","SITE":"AFETR","ELEMENT_SET_NO":"999","CENTER_NAME":"EARTH","OBJECT_ID":"2020-057BD","MEAN_MOTION_DDOT":"0.0000000000000","FILE":"3265870","APOAPSIS":"548.667","OBJECT_NAME":"STARLINK-1627","MEAN_ANOMALY":"300.8239","PERIAPSIS":"545.793","MEAN_MOTION_DOT":"0.00000989","GP_ID":"193352750","LAUNCH_DATE":"2020-08-18","TLE_LINE1":"1 46168U 20057BD  22006.90610146  .00000989  00000-0  85314-4 0  9997","TLE_LINE2":"2 46168  53.0543 262.6571 0002075  59.2954 300.8239 15.06394516 77249"},{"PERIOD":"95.643","TIME_SYSTEM":"UTC","CLASSIFICATION_TYPE":"U","OBJECT_TYPE":"PAYLOAD","ECCENTRICITY":"0.00016680","MEAN_MOTION":"15.05600667","COUNTRY_CODE":"US","SEMIMAJOR_AXIS":"6927.799","REF_FRAME":"TEME","RA_OF_ASC_NODE":"312.8308","BSTAR":"-0.00021747000000","EPOCH":"2022-01-06T20:47:29.124384","NORAD_CAT_ID":"46169","ARG_OF_PERICENTER":"60.3654","REV_AT_EPOCH":"7651","RCS_SIZE":"LARGE","OBJECT_ID":"2020-057BE","MEAN_ELEMENT_THEORY":"SGP4","INCLINATION":"53.0005","DECAY_DATE":null,"CENTER_NAME":"EARTH","SITE":"AFETR","ELEMENT_SET_NO":"999","EPHEMERIS_TYPE":"0","MEAN_ANOMALY":"299.7500","PERIAPSIS":"548.509","OBJECT_NAME":"STARLINK-1628","GP_ID":"193351999","MEAN_MOTION_DOT":"-0.00003448","FILE":"3265870","APOAPSIS":"550.820","MEAN_MOTION_DDOT":"0.0000000000000","TLE_LINE1":"1 46169U 20057BE  22006.86630931 -.00003448  00000-0 -21747-3 0  9991","TLE_LINE2":"2 46169  53.0005 312.8308 0001668  60.3654 299.7500 15.05600667 76518","LAUNCH_DATE":"2020-08-18"},{"OBJECT_ID":"2020-057BG","CENTER_NAME":"EARTH","SITE":"AFETR","ELEMENT_SET_NO":"999","EPHEMERIS_TYPE":"0","INCLINATION":"53.0548","MEAN_ELEMENT_THEORY":"SGP4","DECAY_DATE":null,"ECCENTRICITY":"0.00019370","OBJECT_TYPE":"PAYLOAD","REF_FRAME":"TEME","SEMIMAJOR_AXIS":"6925.373","COUNTRY_CODE":"US","MEAN_MOTION":"15.06391926","TIME_SYSTEM":"UTC","PERIOD":"95.593","CLASSIFICATION_TYPE":"U","REV_AT_EPOCH":"7806","RCS_SIZE":"LARGE","EPOCH":"2022-01-06T18:41:42.740160","RA_OF_ASC_NODE":"293.2285","BSTAR":"0.00013905000000","ARG_OF_PERICENTER":"52.6238","NORAD_CAT_ID":"46171","TLE_LINE2":"2 46171  53.0548 293.2285 0001937  52.6238 307.4927 15.06391926 78068","TLE_LINE1":"1 46171U 20057BG  22006.77896690  .00001790  00000-0  13905-3 0  9993","LAUNCH_DATE":"2020-08-18","MEAN_MOTION_DOT":"0.00001790","GP_ID":"193352249","PERIAPSIS":"545.897","MEAN_ANOMALY":"307.4927","OBJECT_NAME":"STARLINK-1633","APOAPSIS":"548.580","FILE":"3265870","MEAN_MOTION_DDOT":"0.0000000000000"},{"GP_ID":"193352500","MEAN_MOTION_DOT":"0.00001984","OBJECT_NAME":"STARLINK-1635","PERIAPSIS":"545.722","MEAN_ANOMALY":"311.1966","MEAN_MOTION_DDOT":"0.0000000000000","APOAPSIS":"548.719","FILE":"3265870","TLE_LINE2":"2 46172  53.0556 294.3666 0002164  48.9209 311.1966 15.06397699 78026","TLE_LINE1":"1 46172U 20057BH  22006.52831563  .00001984  00000-0  15207-3 0  9997","LAUNCH_DATE":"2020-08-18","COUNTRY_CODE":"US","MEAN_MOTION":"15.06397699","REF_FRAME":"TEME","SEMIMAJOR_AXIS":"6925.356","OBJECT_TYPE":"PAYLOAD","ECCENTRICITY":"0.00021640","CLASSIFICATION_TYPE":"U","PERIOD":"95.592","TIME_SYSTEM":"UTC","RCS_SIZE":"LARGE","REV_AT_EPOCH":"7802","NORAD_CAT_ID":"46172","ARG_OF_PERICENTER":"48.9209","BSTAR":"0.00015207000000","RA_OF_ASC_NODE":"294.3666","EPOCH":"2022-01-06T12:40:46.470432","OBJECT_ID":"2020-057BH","EPHEMERIS_TYPE":"0","SITE":"AFETR","CENTER_NAME":"EARTH","ELEMENT_SET_NO":"999","DECAY_DATE":null,"MEAN_ELEMENT_THEORY":"SGP4","INCLINATION":"53.0556"},{"SEMIMAJOR_AXIS":"6925.339","REF_FRAME":"TEME","MEAN_MOTION":"15.06403203","COUNTRY_CODE":"US","ECCENTRICITY":"0.00016300","OBJECT_TYPE":"PAYLOAD","CLASSIFICATION_TYPE":"U","TIME_SYSTEM":"UTC","PERIOD":"95.592","RCS_SIZE":"LARGE","REV_AT_EPOCH":"7653","ARG_OF_PERICENTER":"58.2076","NORAD_CAT_ID":"46173","EPOCH":"2022-01-06T20:09:16.289568","BSTAR":"0.00011852000000","RA_OF_ASC_NODE":"312.9630","OBJECT_ID":"2020-057BJ","EPHEMERIS_TYPE":"0","CENTER_NAME":"EARTH","SITE":"AFETR","ELEMENT_SET_NO":"999","DECAY_DATE":null,"INCLINATION":"53.0552","MEAN_ELEMENT_THEORY":"SGP4","MEAN_MOTION_DOT":"0.00001484","GP_ID":"193353251","OBJECT_NAME":"STARLINK-1640","PERIAPSIS":"546.075","MEAN_ANOMALY":"301.9072","MEAN_MOTION_DDOT":"0.0000000000000","FILE":"3265870","APOAPSIS":"548.333","TLE_LINE2":"2 46173  53.0552 312.9630 0001630  58.2076 301.9072 15.06403203 76532","TLE_LINE1":"1 46173U 20057BJ  22006.83977187  .00001484  00000-0  11852-3 0  9992","LAUNCH_DATE":"2020-08-18"},{"PERIOD":"95.592","TIME_SYSTEM":"UTC","CLASSIFICATION_TYPE":"U","OBJECT_TYPE":"PAYLOAD","ECCENTRICITY":"0.00017880","MEAN_MOTION":"15.06396440","COUNTRY_CODE":"US","REF_FRAME":"TEME","SEMIMAJOR_AXIS":"6925.359","BSTAR":"0.00000070445000","RA_OF_ASC_NODE":"312.9242","EPOCH":"2022-01-06T20:19:54.256800","NORAD_CAT_ID":"46174","ARG_OF_PERICENTER":"63.0432","REV_AT_EPOCH":"7653","RCS_SIZE":"LARGE","OBJECT_ID":"2020-057BK","MEAN_ELEMENT_THEORY":"SGP4","INCLINATION":"53.0561","DECAY_DATE":null,"CENTER_NAME":"EARTH","SITE":"AFETR","ELEMENT_SET_NO":"999","EPHEMERIS_TYPE":"0","PERIAPSIS":"545.986","MEAN_ANOMALY":"297.0739","OBJECT_NAME":"STARLINK-1641","GP_ID":"193351499","MEAN_MOTION_DOT":"-0.00000271","APOAPSIS":"548.463","FILE":"3265870","MEAN_MOTION_DDOT":"0.0000000000000","TLE_LINE1":"1 46174U 20057BK  22006.84715575 -.00000271  00000-0  70445-6 0  9995","TLE_LINE2":"2 46174  53.0561 312.9242 0001788  63.0432 297.0739 15.06396440 76535","LAUNCH_DATE":"2020-08-18"},{"MEAN_MOTION_DOT":"0.00001418","GP_ID":"193353514","OBJECT_NAME":"STARLINK-1734","MEAN_ANOMALY":"299.2251","PERIAPSIS":"545.957","MEAN_MOTION_DDOT":"0.0000000000000","FILE":"3265870","APOAPSIS":"548.498","TLE_LINE2":"2 46325  53.0559 327.5800 0001835  60.8921 299.2251 15.06395414 76031","TLE_LINE1":"1 46325U 20062A   22006.92501322  .00001418  00000-0  11411-3 0  9999","LAUNCH_DATE":"2020-09-03","REF_FRAME":"TEME","SEMIMAJOR_AXIS":"6925.363","COUNTRY_CODE":"US","MEAN_MOTION":"15.06395414","ECCENTRICITY":"0.00018350","OBJECT_TYPE":"PAYLOAD","CLASSIFICATION_TYPE":"U","TIME_SYSTEM":"UTC","PERIOD":"95.592","RCS_SIZE":"LARGE","REV_AT_EPOCH":"7603","ARG_OF_PERICENTER":"60.8921","NORAD_CAT_ID":"46325","EPOCH":"2022-01-06T22:12:01.142208","BSTAR":"0.00011411000000","RA_OF_ASC_NODE":"327.5800","OBJECT_ID":"2020-062A","EPHEMERIS_TYPE":"0","SITE":"AFETR","CENTER_NAME":"EARTH","ELEMENT_SET_NO":"999","DECAY_DATE":null,"INCLINATION":"53.0559","MEAN_ELEMENT_THEORY":"SGP4"},{"FILE":"3265629","APOAPSIS":"548.156","MEAN_MOTION_DDOT":"0.0000000000000","PERIAPSIS":"546.292","MEAN_ANOMALY":"282.0787","OBJECT_NAME":"STARLINK-1654","MEAN_MOTION_DOT":"0.00001742","GP_ID":"193323113","LAUNCH_DATE":"2020-09-03","TLE_LINE1":"1 46326U 20062B   22006.43522012  .00001742  00000-0  13579-3 0  9992","TLE_LINE2":"2 46326  53.0548  14.7651 0001346  78.0353 282.0787 15.06396505 74726","EPOCH":"2022-01-06T10:26:43.018368","BSTAR":"0.00013579000000","RA_OF_ASC_NODE":"14.7651","ARG_OF_PERICENTER":"78.0353","NORAD_CAT_ID":"46326","REV_AT_EPOCH":"7472","RCS_SIZE":"LARGE","TIME_SYSTEM":"UTC","PERIOD":"95.592","CLASSIFICATION_TYPE":"U","ECCENTRICITY":"0.00013460","OBJECT_TYPE":"PAYLOAD","REF_FRAME":"TEME","SEMIMAJOR_AXIS":"6925.359","COUNTRY_CODE":"US","MEAN_MOTION":"15.06396505","INCLINATION":"53.0548","MEAN_ELEMENT_THEORY":"SGP4","DECAY_DATE":null,"SITE":"AFETR","CENTER_NAME":"EARTH","ELEMENT_SET_NO":"999","EPHEMERIS_TYPE":"0","OBJECT_ID":"2020-062B"}];
